CCSDS_OMM_VERS = 2.0
CREATION_DATE  = 
ORIGINATOR     = 

OBJECT_NAME    = STARLINK-37013
OBJECT_ID      = 2026-049W
CENTER_NAME    = EARTH
REF_FRAME      = TEME
TIME_SYSTEM    = UTC
MEAN_ELEMENT_THEORY = SGP/SGP4

EPOCH          = 2026-03-25T20:00:01.999008
MEAN_MOTION    = 15.80812234
ECCENTRICITY   = .0001378
INCLINATION    = 97.2796
RA_OF_ASC_NODE = 104.8859
ARG_OF_PERICENTER = 81.4199
MEAN_ANOMALY   = 162.6347

EPHEMERIS_TYPE = 0
CLASSIFICATION_TYPE = U
NORAD_CAT_ID   = 68162
ELEMENT_SET_NO = 999
REV_AT_EPOCH   = 321
BSTAR          = -.24996E-4
MEAN_MOTION_DOT = -.4926E-4
MEAN_MOTION_DDOT = 0

CCSDS_OMM_VERS = 2.0
CREATION_DATE  = 
ORIGINATOR     = 

OBJECT_NAME    = STARLINK-36958
OBJECT_ID      = 2026-049X
CENTER_NAME    = EARTH
REF_FRAME      = TEME
TIME_SYSTEM    = UTC
MEAN_ELEMENT_THEORY = SGP/SGP4

EPOCH          = 2026-03-25T20:00:01.999008
MEAN_MOTION    = 15.80809087
ECCENTRICITY   = .0001443
INCLINATION    = 97.2800
RA_OF_ASC_NODE = 104.8829
ARG_OF_PERICENTER = 90.6382
MEAN_ANOMALY   = 144.8650

EPHEMERIS_TYPE = 0
CLASSIFICATION_TYPE = U
NORAD_CAT_ID   = 68163
ELEMENT_SET_NO = 999
REV_AT_EPOCH   = 321
BSTAR          = .13439E-3
MEAN_MOTION_DOT = .25668E-3
MEAN_MOTION_DDOT = 0

CCSDS_OMM_VERS = 2.0
CREATION_DATE  = 
ORIGINATOR     = 

OBJECT_NAME    = STARLINK-37002
OBJECT_ID      = 2026-049Y
CENTER_NAME    = EARTH
REF_FRAME      = TEME
TIME_SYSTEM    = UTC
MEAN_ELEMENT_THEORY = SGP/SGP4

EPOCH          = 2026-03-25T20:00:01.999008
MEAN_MOTION    = 15.80790149
ECCENTRICITY   = .0001397
INCLINATION    = 97.2799
RA_OF_ASC_NODE = 104.8804
ARG_OF_PERICENTER = 81.8763
MEAN_ANOMALY   = 149.3715

EPHEMERIS_TYPE = 0
CLASSIFICATION_TYPE = U
NORAD_CAT_ID   = 68164
ELEMENT_SET_NO = 999
REV_AT_EPOCH   = 321
BSTAR          = .34893E-4
MEAN_MOTION_DOT = .6539E-4
MEAN_MOTION_DDOT = 0

CCSDS_OMM_VERS = 2.0
CREATION_DATE  = 
ORIGINATOR     = 

OBJECT_NAME    = STARLINK-36971
OBJECT_ID      = 2026-049Z
CENTER_NAME    = EARTH
REF_FRAME      = TEME
TIME_SYSTEM    = UTC
MEAN_ELEMENT_THEORY = SGP/SGP4

EPOCH          = 2026-03-25T20:00:01.999008
MEAN_MOTION    = 15.80792323
ECCENTRICITY   = .0000792
INCLINATION    = 97.2799
RA_OF_ASC_NODE = 104.8841
ARG_OF_PERICENTER = 102.6187
MEAN_ANOMALY   = 137.1637

EPHEMERIS_TYPE = 0
CLASSIFICATION_TYPE = U
NORAD_CAT_ID   = 68165
ELEMENT_SET_NO = 999
REV_AT_EPOCH   = 321
BSTAR          = .15403E-3
MEAN_MOTION_DOT = .29428E-3
MEAN_MOTION_DDOT = 0

CCSDS_OMM_VERS = 2.0
CREATION_DATE  = 
ORIGINATOR     = 

OBJECT_NAME    = STARLINK-36273
OBJECT_ID      = 2026-049AA
CENTER_NAME    = EARTH
REF_FRAME      = TEME
TIME_SYSTEM    = UTC
MEAN_ELEMENT_THEORY = SGP/SGP4

EPOCH          = 2026-03-25T20:00:01.999008
MEAN_MOTION    = 15.81069655
ECCENTRICITY   = .0001218
INCLINATION    = 97.2789
RA_OF_ASC_NODE = 104.8876
ARG_OF_PERICENTER = 78.5606
MEAN_ANOMALY   = 169.7091

EPHEMERIS_TYPE = 0
CLASSIFICATION_TYPE = U
NORAD_CAT_ID   = 68166
ELEMENT_SET_NO = 999
REV_AT_EPOCH   = 322
BSTAR          = -.38521E-2
MEAN_MOTION_DOT = -.690423E-2
MEAN_MOTION_DDOT = 0

CCSDS_OMM_VERS = 2.0
CREATION_DATE  = 
ORIGINATOR     = 

OBJECT_NAME    = STARLINK-36969
OBJECT_ID      = 2026-050A
CENTER_NAME    = EARTH
REF_FRAME      = TEME
TIME_SYSTEM    = UTC
MEAN_ELEMENT_THEORY = SGP/SGP4

EPOCH          = 2026-03-25T19:26:14.063136
MEAN_MOTION    = 15.81013009
ECCENTRICITY   = .0000148
INCLINATION    = 53.1588
RA_OF_ASC_NODE = 201.0534
ARG_OF_PERICENTER = 209.5340
MEAN_ANOMALY   = 150.5675

EPHEMERIS_TYPE = 0
CLASSIFICATION_TYPE = U
NORAD_CAT_ID   = 68167
ELEMENT_SET_NO = 999
REV_AT_EPOCH   = 302
BSTAR          = .13373E-2
MEAN_MOTION_DOT = .273547E-2
MEAN_MOTION_DDOT = 0

CCSDS_OMM_VERS = 2.0
CREATION_DATE  = 
ORIGINATOR     = 

OBJECT_NAME    = STARLINK-36984
OBJECT_ID      = 2026-050B
CENTER_NAME    = EARTH
REF_FRAME      = TEME
TIME_SYSTEM    = UTC
MEAN_ELEMENT_THEORY = SGP/SGP4

EPOCH          = 2026-03-25T17:54:07.987392
MEAN_MOTION    = 15.80946278
ECCENTRICITY   = .0001389
INCLINATION    = 53.1592
RA_OF_ASC_NODE = 201.3666
ARG_OF_PERICENTER = 86.3246
MEAN_ANOMALY   = 273.7936

EPHEMERIS_TYPE = 0
CLASSIFICATION_TYPE = U
NORAD_CAT_ID   = 68168
ELEMENT_SET_NO = 999
REV_AT_EPOCH   = 301
BSTAR          = .86443E-3
MEAN_MOTION_DOT = .173979E-2
MEAN_MOTION_DDOT = 0

CCSDS_OMM_VERS = 2.0
CREATION_DATE  = 
ORIGINATOR     = 

OBJECT_NAME    = STARLINK-37077
OBJECT_ID      = 2026-050C
CENTER_NAME    = EARTH
REF_FRAME      = TEME
TIME_SYSTEM    = UTC
MEAN_ELEMENT_THEORY = SGP/SGP4

EPOCH          = 2026-03-25T19:24:04.868352
MEAN_MOTION    = 15.80984563
ECCENTRICITY   = .0000906
INCLINATION    = 53.1597
RA_OF_ASC_NODE = 201.0434
ARG_OF_PERICENTER = 71.8803
MEAN_ANOMALY   = 288.2318

EPHEMERIS_TYPE = 0
CLASSIFICATION_TYPE = U
NORAD_CAT_ID   = 68169
ELEMENT_SET_NO = 999
REV_AT_EPOCH   = 302
BSTAR          = .107E-2
MEAN_MOTION_DOT = .216993E-2
MEAN_MOTION_DDOT = 0

CCSDS_OMM_VERS = 2.0
CREATION_DATE  = 
ORIGINATOR     = 

OBJECT_NAME    = STARLINK-37003
OBJECT_ID      = 2026-050D
CENTER_NAME    = EARTH
REF_FRAME      = TEME
TIME_SYSTEM    = UTC
MEAN_ELEMENT_THEORY = SGP/SGP4

EPOCH          = 2026-03-25T19:23:00.128832
MEAN_MOTION    = 15.80986243
ECCENTRICITY   = .0000913
INCLINATION    = 53.1593
RA_OF_ASC_NODE = 201.0383
ARG_OF_PERICENTER = 54.0888
MEAN_ANOMALY   = 306.0219

EPHEMERIS_TYPE = 0
CLASSIFICATION_TYPE = U
NORAD_CAT_ID   = 68170
ELEMENT_SET_NO = 999
REV_AT_EPOCH   = 302
BSTAR          = .11777E-2
MEAN_MOTION_DOT = .239549E-2
MEAN_MOTION_DDOT = 0

CCSDS_OMM_VERS = 2.0
CREATION_DATE  = 
ORIGINATOR     = 

OBJECT_NAME    = STARLINK-37034
OBJECT_ID      = 2026-050E
CENTER_NAME    = EARTH
REF_FRAME      = TEME
TIME_SYSTEM    = UTC
MEAN_ELEMENT_THEORY = SGP/SGP4

EPOCH          = 2026-03-25T19:21:55.368576
MEAN_MOTION    = 15.80983351
ECCENTRICITY   = .0001229
INCLINATION    = 53.1591
RA_OF_ASC_NODE = 201.0330
ARG_OF_PERICENTER = 85.1126
MEAN_ANOMALY   = 275.0037

EPHEMERIS_TYPE = 0
CLASSIFICATION_TYPE = U
NORAD_CAT_ID   = 68171
ELEMENT_SET_NO = 999
REV_AT_EPOCH   = 302
BSTAR          = .11125E-2
MEAN_MOTION_DOT = .225866E-2
MEAN_MOTION_DDOT = 0

CCSDS_OMM_VERS = 2.0
CREATION_DATE  = 
ORIGINATOR     = 

OBJECT_NAME    = STARLINK-37031
OBJECT_ID      = 2026-050F
CENTER_NAME    = EARTH
REF_FRAME      = TEME
TIME_SYSTEM    = UTC
MEAN_ELEMENT_THEORY = SGP/SGP4

EPOCH          = 2026-03-25T19:20:50.413056
MEAN_MOTION    = 15.80988116
ECCENTRICITY   = .0000521
INCLINATION    = 53.1592
RA_OF_ASC_NODE = 201.0274
ARG_OF_PERICENTER = 102.5989
MEAN_ANOMALY   = 257.5092

EPHEMERIS_TYPE = 0
CLASSIFICATION_TYPE = U
NORAD_CAT_ID   = 68172
ELEMENT_SET_NO = 999
REV_AT_EPOCH   = 302
BSTAR          = .11569E-2
MEAN_MOTION_DOT = .235214E-2
MEAN_MOTION_DDOT = 0

CCSDS_OMM_VERS = 2.0
CREATION_DATE  = 
ORIGINATOR     = 

OBJECT_NAME    = STARLINK-37076
OBJECT_ID      = 2026-050G
CENTER_NAME    = EARTH
REF_FRAME      = TEME
TIME_SYSTEM    = UTC
MEAN_ELEMENT_THEORY = SGP/SGP4

EPOCH          = 2026-03-25T19:19:45.760800
MEAN_MOTION    = 15.80964254
ECCENTRICITY   = .0001164
INCLINATION    = 53.1597
RA_OF_ASC_NODE = 201.0233
ARG_OF_PERICENTER = 90.8680
MEAN_ANOMALY   = 269.2476

EPHEMERIS_TYPE = 0
CLASSIFICATION_TYPE = U
NORAD_CAT_ID   = 68173
ELEMENT_SET_NO = 999
REV_AT_EPOCH   = 302
BSTAR          = .86284E-3
MEAN_MOTION_DOT = .173797E-2
MEAN_MOTION_DDOT = 0

