STARLINK-37013          
1 68162U 26049W   26084.83335647 -.00004926  00000+0 -24996-4 0  9999
2 68162  97.2796 104.8859 0001378  81.4199 162.6347 15.80812234  3210
STARLINK-36958          
1 68163U 26049X   26084.83335647  .00025668  00000+0  13439-3 0  9993
2 68163  97.2800 104.8829 0001443  90.6382 144.8650 15.80809087  3214
STARLINK-37002          
1 68164U 26049Y   26084.83335647  .00006539  00000+0  34893-4 0  9998
2 68164  97.2799 104.8804 0001397  81.8763 149.3715 15.80790149  3218
STARLINK-36971          
1 68165U 26049Z   26084.83335647  .00029428  00000+0  15403-3 0  9996
2 68165  97.2799 104.8841 0000792 102.6187 137.1637 15.80792323  3214
STARLINK-36273          
1 68166U 26049AA  26084.83335647 -.00690423  00000+0 -38521-2 0  9993
2 68166  97.2789 104.8876 0001218  78.5606 169.7091 15.81069655  3225
STARLINK-36969          
1 68167U 26050A   26084.80988499  .00273547  00000+0  13373-2 0  9992
2 68167  53.1588 201.0534 0000148 209.5340 150.5675 15.81013009  3023
STARLINK-36984          
1 68168U 26050B   26084.74592578  .00173979  00000+0  86443-3 0  9992
2 68168  53.1592 201.3666 0001389  86.3246 273.7936 15.80946278  3011
STARLINK-37077          
1 68169U 26050C   26084.80838968  .00216993  00000+0  10700-2 0  9992
2 68169  53.1597 201.0434 0000906  71.8803 288.2318 15.80984563  3024
STARLINK-37003          
1 68170U 26050D   26084.80764038  .00239549  00000+0  11777-2 0  9997
2 68170  53.1593 201.0383 0000913  54.0888 306.0219 15.80986243  3025
STARLINK-37034          
1 68171U 26050E   26084.80689084  .00225866  00000+0  11125-2 0  9999
2 68171  53.1591 201.0330 0001229  85.1126 275.0037 15.80983351  3027
STARLINK-37031          
1 68172U 26050F   26084.80613904  .00235214  00000+0  11569-2 0  9998
2 68172  53.1592 201.0274 0000521 102.5989 257.5092 15.80988116  3021
STARLINK-37076          
1 68173U 26050G   26084.80539075  .00173797  00000+0  86284-3 0  9999
2 68173  53.1597 201.0233 0001164  90.8680 269.2476 15.80964254  3026
